ONEWEB-0328             
1 49197U 21083M   25199.79208298 -.00000038  00000+0 -13933-3 0  9999
2 49197  87.8947  26.4398 0001712  85.9421 274.1903 13.13471729187131
ONEWEB-0331             
1 49198U 21083N   25199.82184030  .00000079  00000+0  16880-3 0  9998
2 49198  87.9120  41.6762 0001441  91.0528 269.0769 13.18686051186071
ONEWEB-0333             
1 49199U 21083P   25199.78700391 -.00000142  00000+0 -42348-3 0  9999
2 49199  87.8959  26.5100 0001881  89.9468 270.1877 13.13471608187143
ONEWEB-0334             
1 49200U 21083Q   25199.66114321  .00000124  00000+0  27324-3 0  9996
2 49200  87.9275 340.9112 0002931  91.1973 268.9496 13.20771303192766
ONEWEB-0335             
1 49201U 21083R   25199.78192636 -.00000254  00000+0 -73049-3 0  9996
2 49201  87.8956  26.4993 0001634  93.7147 266.4169 13.13471484187151
ONEWEB-0336             
1 49202U 21083S   25200.21021666  .00000257  00000+0  66823-3 0  9995
2 49202  87.8961  26.4070 0001877  93.9768 266.1576 13.13469221188509
ONEWEB-0337             
1 49203U 21083T   25200.52494381  .00000048  00000+0  95501-4 0  9992
2 49203  87.8960  26.3438 0001625  86.9595 273.1720 13.13470572188541
ONEWEB-0338             
1 49204U 21083U   25200.46921790  .00000015  00000+0  59217-5 0  9994
2 49204  87.9280 340.7427 0002309  95.1820 264.9577 13.20770857194195
ONEWEB-0339             
1 49205U 21083V   25199.77176411 -.00000189  00000+0 -55377-3 0  9993
2 49205  87.8958  26.4804 0001840  85.5361 274.5979 13.13470854187120
ONEWEB-0340             
1 49206U 21083W   25200.49153611  .00000027  00000+0  35131-4 0  9999
2 49206  87.9123  41.5464 0001771  88.7760 271.3575 13.18685054187411
ONEWEB-0341             
1 49207U 21083X   25200.49814247  .00000038  00000+0  64758-4 0  9998
2 49207  87.9126  41.5555 0001597  68.6524 291.4779 13.18686123187436
ONEWEB-0342             
1 49208U 21083Y   25199.79372384  .00000010  00000+0 -82320-5 0  9997
2 49208  87.9270 340.8535 0002004  95.4770 264.6592 13.20769860192776
ONEWEB-0343             
1 49209U 21083Z   25200.49403021  .00000027  00000+0  35481-4 0  9993
2 49209  87.9124  41.5433 0001907  68.4707 291.6629 13.18687293187487
ONEWEB-0344             
1 49210U 21083AA  25200.22375495 -.00000080  00000+0 -25368-3 0  9992
2 49210  87.8960  26.4301 0001525  78.2256 281.9044 13.13468594188486
ONEWEB-0345             
1 49211U 21083AB  25200.51999915  .00000213  00000+0  54858-3 0  9996
2 49211  87.8958  26.3233 0001470  77.8946 282.2347 13.13471214188536
ONEWEB-0346             
1 49212U 21083AC  25200.12369914  .00000035  00000+0  56392-4 0  9992
2 49212  87.9124  41.6392 0001544 106.7554 253.3748 13.18685287187375
ONEWEB-0348             
1 49213U 21083AD  25200.46607207  .00000085  00000+0  17822-3 0  9999
2 49213  87.9279 340.7292 0001359 103.4799 256.6486 13.20772939194195
ONEWEB-0350             
1 49214U 21083AE  25200.52931954 -.00000019  00000+0 -87359-4 0  9998
2 49214  87.8956  26.3126 0001567  82.5378 277.5929 13.13471058188569
ONEWEB-0351             
1 49215U 21083AF  25200.45957900  .00000420  00000+0  10006-2 0  9997
2 49215  87.9207 340.7084 0003309  90.6402 269.5110 13.20792984194168
ONEWEB-0352             
1 49216U 21083AG  25200.50984877  .00000413  00000+0  10961-2 0  9999
2 49216  87.8960  26.3586 0002159  80.7193 279.4180 13.13470832188658
ONEWEB-0354             
1 49217U 21083AH  25199.65167082  .00000132  00000+0  29332-3 0  9995
2 49217  87.9282 340.8724 0001591  93.3069 266.8246 13.20770705192788
ONEWEB-0355             
1 49218U 21083AJ  25200.08170094 -.00000314  00000+0 -89431-3 0  9993
2 49218  87.8960  26.4418 0001819  81.7916 278.3419 13.13469949188471
ONEWEB-0357             
1 49219U 21083AK  25199.64851795  .00000136  00000+0  30355-3 0  9998
2 49219  87.9274 340.8780 0001943  91.7886 268.3469 13.20770615192787
ONEWEB-0332             
1 49279U 21090A   25200.50780172  .00000146  00000+0  35990-3 0  9991
2 49279  87.9058 355.9134 0002079  92.5612 267.5755 13.14502763183879
ONEWEB-0347             
1 49280U 21090B   25200.47236933 -.00000005  00000+0 -44160-4 0  9996
2 49280  87.9286 340.7241 0002221 101.8741 258.2641 13.20770146187123
ONEWEB-0349             
1 49281U 21090C   25199.67061087  .00000007  00000+0 -14405-4 0  9992
2 49281  87.9279 340.8885 0001923  93.5442 266.5911 13.20770293185802
ONEWEB-0353             
1 49282U 21090D   25199.89092840  .00000217  00000+0  55153-3 0  9994
2 49282  87.9053 356.0225 0002069  95.5956 264.5410 13.14503546183790
ONEWEB-0356             
1 49283U 21090E   25199.66903454  .00000024  00000+0  27661-4 0  9992
2 49283  87.9277 340.8792 0001897 124.4453 235.6860 13.20771207185801
ONEWEB-0358             
1 49284U 21090F   25200.38083750  .00000013  00000+0 -55239-6 0  9996
2 49284  87.9278 340.7277 0001774 100.2552 259.8781 13.20770903187912
ONEWEB-0359             
1 49285U 21090G   25199.62009718  .00000274  00000+0  64310-3 0  9998
2 49285  87.9280 340.8911 0001396  93.4691 266.6602 13.20776917187783
ONEWEB-0360             
1 49286U 21090H   25200.44396722 -.00000091  00000+0 -25474-3 0  9993
2 49286  87.9284 340.7345 0001693  94.2806 265.8521 13.20769931187212
ONEWEB-0361             
1 49287U 21090J   25199.66745647  .00000118  00000+0  25775-3 0  9991
2 49287  87.9280 340.8837 0001834 101.8953 258.2386 13.20771237186273
ONEWEB-0362             
1 49288U 21090K   25199.73497693  .00000120  00000+0  26622-3 0  9990
2 49288  87.9221  11.2755 0001899  85.5358 274.5991 13.19724759182932
ONEWEB-0363             
1 49289U 21090L   25199.68324241  .00000014  00000+0  17385-5 0  9993
2 49289  87.9283 340.8761 0001766 109.4894 250.6430 13.20770521186288
ONEWEB-0364             
1 49290U 21090M   25199.64537318  .00000171  00000+0  38842-3 0  9995
2 49290  87.9279 340.9133 0001890 101.8125 258.3220 13.20772406187412
ONEWEB-0365             
1 49291U 21090N   25200.19935583  .00000075  00000+0  15430-3 0  9996
2 49291  87.9215  11.1379 0001967  90.3775 269.7583 13.19724674183797
ONEWEB-0366             
1 49292U 21090P   25199.88776141  .00000267  00000+0  68458-3 0  9994
2 49292  87.9053 356.0357 0001803  96.3117 263.8218 13.14503118183771
ONEWEB-0367             
1 49293U 21090Q   25199.83317325 -.00000019  00000+0 -77613-4 0  9996
2 49293  87.9283 340.8416 0001975  91.8380 268.2980 13.20770085185825
ONEWEB-0368             
1 49294U 21090R   25199.65481371  .00000075  00000+0  15356-3 0  9995
2 49294  87.9288 340.9109 0002532 111.1555 248.9849 13.20770324186951
ONEWEB-0369             
1 49295U 21090S   25199.73970044  .00000050  00000+0  91922-4 0  9992
2 49295  87.9223  11.2594 0001952  91.7739 268.3617 13.19723924182439
ONEWEB-0370             
1 49296U 21090T   25199.69113391 -.00000020  00000+0 -81965-4 0  9997
2 49296  87.9285 340.8753 0001757  87.2003 272.9331 13.20770480185846
ONEWEB-0371             
1 49297U 21090U   25200.50577676  .00000063  00000+0  12618-3 0  9994
2 49297  87.9226  11.0972 0001913  89.6481 270.4871 13.19725288183868
ONEWEB-0372             
1 49298U 21090V   25199.83146834  .00000027  00000+0  33896-4 0  9998
2 49298  87.9277 340.8561 0002045  96.8739 263.2627 13.20770488185837
ONEWEB-0373             
1 49299U 21090W   25200.46448521 -.00000053  00000+0 -16250-3 0  9994
2 49299  87.9279 340.7412 0002001 104.4384 255.6971 13.20770259188407
ONEWEB-0374             
1 49300U 21090X   25199.87506404  .00000195  00000+0  49202-3 0  9992
2 49300  87.9049 356.0185 0001960 113.1139 247.0197 13.14501682183775
ONEWEB-0375             
1 49301U 21090Y   25199.61853036  .00000076  00000+0  15452-3 0  9999
2 49301  87.9280 340.8877 0001605 115.7646 244.3653 13.20770826186493
ONEWEB-0376             
1 49302U 21090Z   25200.20094756  .00000011  00000+0 -45957-5 0  9999
2 49302  87.9218  11.1401 0002126  89.7952 270.3424 13.19726094183819
ONEWEB-0377             
1 49303U 21090AA  25199.68021880  .00000044  00000+0  75259-4 0  9999
2 49303  87.9283 340.8686 0001650  94.2899 265.8423 13.20773003186490
ONEWEB-0378             
1 49304U 21090AB  25200.25001157  .00047731  00000+0  11679+0 0  9996
2 49304  87.9285 340.7644 0001890 102.7677 340.0480 13.20745119187151
ONEWEB-0379             
1 49305U 21090AC  25199.87031183  .00000089  00000+0  20536-3 0  9995
2 49305  87.9050 356.0236 0001933  97.3894 262.7456 13.14503629183775
ONEWEB-0380             
1 49306U 21090AD  25199.89450799 -.00000004  00000+0 -41486-4 0  9993
2 49306  87.9216  11.2301 0001645  92.9221 267.2100 13.19725798182467
ONEWEB-0381             
1 49307U 21090AE  25199.82842647  .00000023  00000+0  24822-4 0  9998
2 49307  87.9286 340.8476 0001702 105.0100 255.1221 13.20771455185821
ONEWEB-0382             
1 49308U 21090AF  25199.43702615  .00000113  00000+0  24493-3 0  9999
2 49308  87.9278 340.9187 0001836 107.6623 252.4710 13.20770576185768
ONEWEB-0383             
1 49309U 21090AG  25199.71172986  .00000067  00000+0  14501-3 0  9990
2 49309  87.9048 356.0351 0001953  99.4715 260.6636 13.14504202183787
ONEWEB-0384             
1 49310U 21090AH  25199.66004167  .00000101  00000+0  21745-3 0  9998
2 49310  87.9288 340.8924 0002007 113.6820 246.4524 13.20786661185800
ONEWEB-0385             
1 49311U 21090AJ  25200.41396408  .00000065  00000+0  12779-3 0  9993
2 49311  87.9274 340.7416 0001869 102.1194 258.0149 13.20771540187199
ONEWEB-0386             
1 49312U 21090AK  25199.67376261  .00000002  00000+0 -26513-4 0  9998
2 49312  87.9277 340.8587 0001936 106.2968 253.8379 13.20771996185799
ONEWEB-0387             
1 49313U 21090AL  25199.65798890  .00000046  00000+0  82003-4 0  9996
2 49313  87.9267 340.9209 0001582 102.2398 257.8912 13.20770327185795
ONEWEB-0388             
1 49314U 21090AM  25199.73813481  .00000068  00000+0  13762-3 0  9999
2 49314  87.9222  11.2667 0001836  96.4485 263.6856 13.19725955182431
